[{"OBJECT_NAME":"ZHUHAI-1 OHS-02","OBJECT_ID":"2018-040C","EPOCH":"2026-03-10T00:21:17.689248","MEAN_MOTION":15.24423286,"ECCENTRICITY":0.00086405,"INCLINATION":97.0498,"RA_OF_ASC_NODE":99.0102,"ARG_OF_PERICENTER":212.7451,"MEAN_ANOMALY":147.3253,"EPHEMERIS_TYPE":0,"CLASSIFICATION_TYPE":"U","NORAD_CAT_ID":43441,"ELEMENT_SET_NO":999,"REV_AT_EPOCH":9916,"BSTAR":0.00035710842,"MEAN_MOTION_DOT":8.704e-5,"MEAN_MOTION_DDOT":0},{"OBJECT_NAME":"GAOFEN-11 04","OBJECT_ID":"2022-176A","EPOCH":"2026-03-09T22:38:29.569920","MEAN_MOTION":15.23794784,"ECCENTRICITY":0.00022793,"INCLINATION":97.406,"RA_OF_ASC_NODE":203.316,"ARG_OF_PERICENTER":352.388,"MEAN_ANOMALY":7.7322,"EPHEMERIS_TYPE":0,"CLASSIFICATION_TYPE":"U","NORAD_CAT_ID":54818,"ELEMENT_SET_NO":999,"REV_AT_EPOCH":17814,"BSTAR":0.00036628419,"MEAN_MOTION_DOT":8.751e-5,"MEAN_MOTION_DDOT":0}]
